LEMUR-2-STARLIGHT       
1 66783U 25276DY  26178.44935640  .00007208  00000+0  59563-3 0  9998
2 66783  97.5246 248.7373 0014687  98.8253 261.4634 14.99154354 31735
LEMUR-2-TARTIFLETTE     
1 66784U 25276DZ  26178.44769505  .00006016  00000+0  49797-3 0  9998
2 66784  97.5248 248.7433 0013656 105.9072 254.3657 14.99163961 31739
LEMUR-2-VUKASIN         
1 66785U 25276EA  26178.43250741  .00001737  00000+0  14268-3 0  9995
2 66785  97.5292 249.0504 0005467 100.7452 259.4388 15.00428399 31681
LEMUR-2-HOTSPUR-TOM     
1 66786U 25276EB  26178.44096406  .00006073  00000+0  50380-3 0  9996
2 66786  97.5242 248.7158 0014678  97.8186 262.4705 14.99064110 31661
LEMUR-2-MYRA            
1 66787U 25276EC  26178.46463414  .00007638  00000+0  61036-3 0  9994
2 66787  97.5222 249.0084 0017744 108.4621 251.8534 15.00385333 31750
LEMUR-2 FIKRETDENGIZ    
1 67363U 26004A   26177.94985150  .00004701  00000+0  51250-3 0  9998
2 67363  97.8013 176.3578 0010591 105.6843 254.5543 14.88392743 24738
TWILIGHT-1 OBJECT B     
1 67364U 26004B   26178.51654877  .00001820  00000+0  20535-3 0  9993
2 67364  97.8064 176.9265 0010281  95.3700 264.8689 14.87736371 24820
LEMUR-2-MARIO-SOUSA     
1 67365U 26004C   26178.46996198  .00004695  00000+0  50943-3 0  9992
2 67365  97.7984 176.8656 0010179 105.3078 254.9265 14.88591961 24825
LEMUR-2-SONNENBLUME     
1 67367U 26004E   26178.46980885  .00003232  00000+0  35458-3 0  9990
2 67367  97.7983 176.8460 0009669 106.6949 253.5329 14.88367069 24828
LEMUR-2-WOBLER          
1 67368U 26004F   26178.46185897  .00003808  00000+0  41452-3 0  9991
2 67368  97.8035 176.9708 0009984  97.9049 262.3301 14.88582555 24824
LEMUR-2-GRAM-E-SUE      
1 67370U 26004H   26178.45289600  .00002409  00000+0  26491-3 0  9992
2 67370  97.7972 176.8452 0008753 108.0186 252.1985 14.88514147 24827
LEMUR-2-KATIE           
1 67387U 26004AA  26178.49640477  .00003370  00000+0  35417-3 0  9993
2 67387  97.8032 177.3807 0004693  71.9673 288.2055 14.90109546 24847
LEMUR-2-HCS-BAZUS       
1 67388U 26004AB  26178.49520093  .00005118  00000+0  53402-3 0  9991
2 67388  97.8020 177.3597 0004184  70.8724 289.2946 14.90167486 24848
