OBJECT_NAME,OBJECT_ID,EPOCH,MEAN_MOTION,ECCENTRICITY,INCLINATION,RA_OF_ASC_NODE,ARG_OF_PERICENTER,MEAN_ANOMALY,EPHEMERIS_TYPE,CLASSIFICATION_TYPE,NORAD_CAT_ID,ELEMENT_SET_NO,REV_AT_EPOCH,BSTAR,MEAN_MOTION_DOT,MEAN_MOTION_DDOT
LEMUR-2-STARLIGHT,2025-276DY,2026-06-27T10:47:04.392960,14.99154354,.0014687,97.5246,248.7373,98.8253,261.4634,0,U,66783,999,3173,.59563E-3,.7208E-4,0
LEMUR-2-TARTIFLETTE,2025-276DZ,2026-06-27T10:44:40.852320,14.99163961,.0013656,97.5248,248.7433,105.9072,254.3657,0,U,66784,999,3173,.49797E-3,.6016E-4,0
LEMUR-2-VUKASIN,2025-276EA,2026-06-27T10:22:48.640224,15.00428399,.0005467,97.5292,249.0504,100.7452,259.4388,0,U,66785,999,3168,.14268E-3,.1737E-4,0
LEMUR-2-HOTSPUR-TOM,2025-276EB,2026-06-27T10:34:59.294784,14.99064110,.0014678,97.5242,248.7158,97.8186,262.4705,0,U,66786,999,3166,.5038E-3,.6073E-4,0
LEMUR-2-MYRA,2025-276EC,2026-06-27T11:09:04.389696,15.00385333,.0017744,97.5222,249.0084,108.4621,251.8534,0,U,66787,999,3175,.61036E-3,.7638E-4,0
LEMUR-2 FIKRETDENGIZ,2026-004A,2026-06-26T22:47:47.169600,14.88392743,.0010591,97.8013,176.3578,105.6843,254.5543,0,U,67363,999,2473,.5125E-3,.4701E-4,0
TWILIGHT-1 OBJECT B,2026-004B,2026-06-27T12:23:49.813728,14.87736371,.0010281,97.8064,176.9265,95.3700,264.8689,0,U,67364,999,2482,.20535E-3,.182E-4,0
LEMUR-2-MARIO-SOUSA,2026-004C,2026-06-27T11:16:44.715072,14.88591961,.0010179,97.7984,176.8656,105.3078,254.9265,0,U,67365,999,2482,.50943E-3,.4695E-4,0
LEMUR-2-SONNENBLUME,2026-004E,2026-06-27T11:16:31.484640,14.88367069,.0009669,97.7983,176.8460,106.6949,253.5329,0,U,67367,999,2482,.35458E-3,.3232E-4,0
LEMUR-2-WOBLER,2026-004F,2026-06-27T11:05:04.615008,14.88582555,.0009984,97.8035,176.9708,97.9049,262.3301,0,U,67368,999,2482,.41452E-3,.3808E-4,0
LEMUR-2-GRAM-E-SUE,2026-004H,2026-06-27T10:52:10.214400,14.88514147,.0008753,97.7972,176.8452,108.0186,252.1985,0,U,67370,999,2482,.26491E-3,.2409E-4,0
LEMUR-2-KATIE,2026-004AA,2026-06-27T11:54:49.372128,14.90109546,.0004693,97.8032,177.3807,71.9673,288.2055,0,U,67387,999,2484,.35417E-3,.337E-4,0
LEMUR-2-HCS-BAZUS,2026-004AB,2026-06-27T11:53:05.360352,14.90167486,.0004184,97.8020,177.3597,70.8724,289.2946,0,U,67388,999,2484,.53402E-3,.5118E-4,0
